{
    "links": {
        "self": "http://www.neowsapp.com/rest/v1/neo/54054781?api_key=iIulBulltgU6a56xZRHN4H3l9WmuAYTsLGpBGhQ2"
    },
    "id": "54054781",
    "neo_reference_id": "54054781",
    "name": "(2020 TR)",
    "designation": "2020 TR",
    "nasa_jpl_url": "http://ssd.jpl.nasa.gov/sbdb.cgi?sstr=54054781",
    "absolute_magnitude_h": 24.639,
    "estimated_diameter": {
        "kilometers": {
            "estimated_diameter_min": 0.0313873736,
            "estimated_diameter_max": 0.070184301
        },
        "meters": {
            "estimated_diameter_min": 31.3873735876,
            "estimated_diameter_max": 70.184300977
        },
        "miles": {
            "estimated_diameter_min": 0.0195032037,
            "estimated_diameter_max": 0.0436104893
        },
        "feet": {
            "estimated_diameter_min": 102.9769507611,
            "estimated_diameter_max": 230.2634620175
        }
    },
    "is_potentially_hazardous_asteroid": false,
    "close_approach_data": [
        {
            "close_approach_date": "2003-11-05",
            "close_approach_date_full": "2003-Nov-05 16:33",
            "epoch_date_close_approach": 1068049980000,
            "relative_velocity": {
                "kilometers_per_second": "11.8804070306",
                "kilometers_per_hour": "42769.4653100092",
                "miles_per_hour": "26575.2824866554"
            },
            "miss_distance": {
                "astronomical": "0.2540962608",
                "lunar": "98.8434454512",
                "kilometers": "38012259.390644496",
                "miles": "23619722.7242502048"
            },
            "orbiting_body": "Earth"
        },
        {
            "close_approach_date": "2005-08-08",
            "close_approach_date_full": "2005-Aug-08 19:07",
            "epoch_date_close_approach": 1123528020000,
            "relative_velocity": {
                "kilometers_per_second": "16.7655399354",
                "kilometers_per_hour": "60355.9437674407",
                "miles_per_hour": "37502.8362814967"
            },
            "miss_distance": {
                "astronomical": "0.4202418428",
                "lunar": "163.4740768492",
                "kilometers": "62867284.567754836",
                "miles": "39063919.2123992968"
            },
            "orbiting_body": "Earth"
        },
        {
            "close_approach_date": "2020-10-01",
            "close_approach_date_full": "2020-Oct-01 10:01",
            "epoch_date_close_approach": 1601546460000,
            "relative_velocity": {
                "kilometers_per_second": "6.1677870734",
                "kilometers_per_hour": "22204.0334643664",
                "miles_per_hour": "13796.722904567"
            },
            "miss_distance": {
                "astronomical": "0.0232932006",
                "lunar": "9.0610550334",
                "kilometers": "3484613.195242722",
                "miles": "2165238.2360926836"
            },
            "orbiting_body": "Earth"
        }
    ],
    "orbital_data": {
        "orbit_id": "8",
        "orbit_determination_date": "2020-11-17 05:29:54",
        "first_observation_date": "2020-10-05",
        "last_observation_date": "2020-11-17",
        "data_arc_in_days": 43,
        "observations_used": 43,
        "orbit_uncertainty": "6",
        "minimum_orbit_intersection": ".0209804",
        "jupiter_tisserand_invariant": "4.423",
        "epoch_osculation": "2459000.5",
        "eccentricity": ".3303937786223385",
        "semi_major_axis": "1.525673159967023",
        "inclination": "7.973607121782462",
        "ascending_node_longitude": "185.6723339914078",
        "orbital_period": "688.3204711653419",
        "perihelion_distance": "1.021600239702835",
        "perihelion_argument": "183.8631718844894",
        "aphelion_distance": "2.029746080231212",
        "perihelion_time": "2459125.412667454812",
        "mean_anomaly": "294.6691516996445",
        "mean_motion": ".5230121942915804",
        "equinox": "J2000",
        "orbit_class": {
            "orbit_class_type": "AMO",
            "orbit_class_description": "Near-Earth asteroid orbits similar to that of 1221 Amor",
            "orbit_class_range": "1.017 AU < q (perihelion) < 1.3 AU"
        }
    },
    "is_sentry_object": false
}